FORMOSAT-3 FM3          
1 29050U 06011D   13109.34910850  .00000474  00000-0  11704-3 0  4275
2 29050  72.0167 165.4434 0052121  30.7152 329.7031 14.55775781375131
FORMOSAT-3 FM4          
1 29051U 06011E   13109.78415201  .00000251  00000-0  11530-3 0  1495
2 29051  72.0090  22.9035 0067883 126.6460 269.4764 14.27659859368691
FORMOSAT-3 FM2          
1 29052U 06011F   13108.05363376  .00000265  00000-0  12283-3 0  1693
2 29052  72.0345  92.8916 0042463 225.1019 168.5781 14.27713558366751
CLOUDSAT                
1 29107U 06016A   13109.43302046  .00000314  00000-0  79716-4 0  2410
2 29107  98.1997  54.3966 0001414  80.3588 279.7766 14.57102696371128
CALIPSO                 
1 29108U 06016B   13110.11849049  .00000466  00000-0  11355-3 0  2712
2 29108  98.2065  54.6236 0001268  74.6908 285.4420 14.57123888371158
HINODE (SOLAR-B)        
1 29479U 06041A   13110.04592216  .00000430  00000-0  92718-4 0   682
2 29479  98.1160 110.1745 0016459 317.5774  74.7367 14.63180433351103
SJ-6C                   
1 29505U 06046A   13110.10194839  .00001067  00000-0  11085-3 0  2397
2 29505  97.7421 105.7400 0004839  93.3086 266.8670 14.91963825353142
SJ-6D                   
1 29506U 06046B   13110.09255556  .00000579  00000-0  63932-4 0  2138
2 29506  97.7529 104.3807 0003026 127.1739 232.9722 14.91143997352978
COROT                   
1 29678U 06063A   13109.82325597  .00000068  00000-0  40007-4 0   846
2 29678  90.0204  10.7740 0007062  81.4530  36.1630 13.98335770322107
AGILE                   
1 31135U 07013A   13109.17080800  .00004342  00000-0  17215-3 0  7879
2 31135   2.4634 314.4901 0018395 323.9516  35.9207 15.15447387331481
AIM                     
1 31304U 07015A   13109.83076894  .00002813  00000-0  24439-3 0   162
2 31304  97.8537 225.3310 0009044 232.2375 274.1163 14.97810186326212
FGRST (GLAST)           
1 33053U 08029A   13108.65903750  .00001284  00000-0  65067-4 0  3077
2 33053  25.5827 247.1977 0014197  16.3885  92.3322 15.06959007267339
KORONAS-FOTON           
1 33504U 09003A   13110.08170572  .00002483  00000-0  15714-3 0  6088
2 33504  82.4698 295.6576 0018884 304.6238 204.2676 15.08427685231895
TATIANA 2               
1 35868U 09049D   13110.20768175  .00000118  00000-0  72488-4 0  4037
2 35868  98.6068 164.6324 0003559 223.3294 136.7591 14.22351196186272
UGATUSAT                
1 35869U 09049E   13110.14425190  .00000054  00000-0  43814-4 0  3532
2 35869  98.6029 163.9074 0003743 241.3415 118.7377 14.22122002186245
SUMBANDILA (SO-67)      
1 35870U 09049F   13110.10431036  .00004697  00000-0  18253-3 0  9841
2 35870  97.1971 140.9356 0002952 130.9361 313.9156 15.26519037199396
WISE                    
1 36119U 09071A   13110.08962940  .00001848  00000-0  96847-4 0  9675
2 36119  97.5192 117.8845 0002085 202.8510 188.2228 15.17042197184991
SDO                     
1 36395U 10005A   13106.42663590 -.00000057  00000-0  00000+0 0  7145
2 36395  27.8333 168.3942 0001423 259.9451 187.8671  1.00274896 11829
CRYOSAT 2               
1 36508U 10013A   13109.51565972  .00000079  00000-0  18622-4 0  9248
2 36508  92.0219 194.6198 0011932 111.5687  71.7532 14.52178759160630
PICARD                  
1 36598U 10028A   13110.14454241  .00000160  00000-0  52743-4 0  1144
2 36598  98.2948 295.9194 0001719 349.0126  11.1020 14.49752196150598
GCOM-W1 (SHIZUKU)       
1 38337U 12025A   13109.90823093  .00000337  00000-0  84965-4 0  3939
2 38337  98.2075  51.0580 0001605  61.3799 298.7569 14.57105175 49121
NUSTAR                  
1 38358U 12031A   13109.04302206  .00001285  00000-0  73761-4 0  1799
2 38358   6.0235 148.4180 0013954  66.3210 293.8959 14.82646805 45986
NEOSSAT                 
1 39089U 13009D   13110.01619795  .00000084  00000-0  46108-4 0   543
2 39089  98.6311 300.2311 0012081 109.8553 250.3942 14.33878101  7651
BRITE-AUSTRIA           
1 39091U 13009F   13109.01711695  .00000083  00000-0  45148-4 0   515
2 39091  98.6302 299.2828 0011343 126.5186 233.7041 14.34485278  7512
UNIBRITE                
1 39092U 13009G   13109.51003009  .00000221  00000-0  94535-4 0   556
2 39092  98.6298 299.7601 0010252 117.5899 242.6324 14.34360626  7589
